[{"OBJECT_NAME":"STARLINK-5275","OBJECT_ID":"2023-014H","EPOCH":"2026-03-09T09:42:39.733920","MEAN_MOTION":14.98327145,"ECCENTRICITY":0.00031214,"INCLINATION":69.9993,"RA_OF_ASC_NODE":65.138,"ARG_OF_PERICENTER":271.4809,"MEAN_ANOMALY":88.5992,"EPHEMERIS_TYPE":0,"CLASSIFICATION_TYPE":"U","NORAD_CAT_ID":55398,"ELEMENT_SET_NO":999,"REV_AT_EPOCH":17201,"BSTAR":-4.3557532e-5,"MEAN_MOTION_DOT":-6.13e-6,"MEAN_MOTION_DDOT":0},{"OBJECT_NAME":"HAWK-8C","OBJECT_ID":"2024-066H","EPOCH":"2026-03-09T11:22:19.381152","MEAN_MOTION":14.98770227,"ECCENTRICITY":0.00039352,"INCLINATION":45.6068,"RA_OF_ASC_NODE":72.8656,"ARG_OF_PERICENTER":260.2975,"MEAN_ANOMALY":99.7462,"EPHEMERIS_TYPE":0,"CLASSIFICATION_TYPE":"U","NORAD_CAT_ID":59449,"ELEMENT_SET_NO":999,"REV_AT_EPOCH":10486,"BSTAR":0.00021518384,"MEAN_MOTION_DOT":2.4e-5,"MEAN_MOTION_DDOT":0}]
