STARLINK-5275           
1 55398U 23014H   26068.40462655 -.00000613  00000+0 -43558-4 0  9994
2 55398  69.9993  65.1380 0003121 271.4809  88.5992 14.98327145172014
HAWK-8C                 
1 59449U 24066H   26068.47383543  .00002400  00000+0  21518-3 0  9993
2 59449  45.6068  72.8656 0003935 260.2975  99.7462 14.98770227104860
